{
  "type": "FeatureCollection",
  "features": [
    {
      "type": "Feature",
      "properties": {
        "norad_id": 31389,
        "name": "FENGYUN 1C DEB",
        "group": "fengyun-1c-debris",
        "lat": 76.89545140240169,
        "lon": 16.349164357811805,
        "alt_km": 681.2313871035731,
        "timestamp": "2025-12-13T16:48:32.992510+00:00",
        "meta_object_name": "FENGYUN 1C DEB",
        "meta_object_id": "1999-025BSV",
        "meta_epoch": "2025-12-12T22:57:56.206656",
        "meta_mean_motion": 14.61035596,
        "meta_eccentricity": 0.00288125,
        "meta_inclination": 99.043,
        "meta_ra_of_asc_node": 152.3704,
        "meta_arg_of_pericenter": 188.66,
        "meta_mean_anomaly": 322.8589,
        "meta_ephemeris_type": 0,
        "meta_classification_type": "U",
        "meta_norad_cat_id": 31389,
        "meta_element_set_no": 999,
        "meta_rev_at_epoch": 96500,
        "meta_bstar": 0.0068899801,
        "meta_mean_motion_dot": 0.00034131,
        "meta_mean_motion_ddot": 0,
        "tle_line1": "1 31389U 99025BSV 25346.95690054  .00034131  00000+0  68900-2 0  9993",
        "tle_line2": "2 31389  99.0430 152.3704 0028812 188.6600 322.8589 14.61035596965000"
      },
      "geometry": {
        "type": "Point",
        "coordinates": [
          16.349164357811805,
          76.89545140240169
        ]
      }
    },
    {
      "type": "Feature",
      "properties": {
        "norad_id": 31410,
        "name": "FENGYUN 1C DEB",
        "group": "fengyun-1c-debris",
        "lat": 41.210682036547055,
        "lon": -22.88021753817354,
        "alt_km": 804.261760979939,
        "timestamp": "2025-12-13T16:48:32.992520+00:00",
        "meta_object_name": "FENGYUN 1C DEB",
        "meta_object_id": "1999-025BSW",
        "meta_epoch": "2025-12-10T10:10:24.605760",
        "meta_mean_motion": 14.44743605,
        "meta_eccentricity": 0.01105862,
        "meta_inclination": 98.8363,
        "meta_ra_of_asc_node": 145.8839,
        "meta_arg_of_pericenter": 293.651,
        "meta_mean_anomaly": 93.5214,
        "meta_ephemeris_type": 0,
        "meta_classification_type": "U",
        "meta_norad_cat_id": 31410,
        "meta_element_set_no": 999,
        "meta_rev_at_epoch": 97718,
        "meta_bstar": 0.0012581489,
        "meta_mean_motion_dot": 4.656e-05,
        "meta_mean_motion_ddot": 0,
        "tle_line1": "1 31410U 99025BSW 25344.42389590  .00004656  00000+0  12581-2 0  9991",
        "tle_line2": "2 31410  98.8363 145.8839 0110586 293.6510  93.5214 14.44743605977187"
      },
      "geometry": {
        "type": "Point",
        "coordinates": [
          -22.88021753817354,
          41.210682036547055
        ]
      }
    },
    {
      "type": "Feature",
      "properties": {
        "norad_id": 31411,
        "name": "FENGYUN 1C DEB",
        "group": "fengyun-1c-debris",
        "lat": -15.910129676667061,
        "lon": -133.51910932507363,
        "alt_km": 762.3571760880341,
        "timestamp": "2025-12-13T16:48:32.992530+00:00",
        "meta_object_name": "FENGYUN 1C DEB",
        "meta_object_id": "1999-025BSX",
        "meta_epoch": "2025-12-12T03:02:30.870816",
        "meta_mean_motion": 14.27987029,
        "meta_eccentricity": 0.01006421,
        "meta_inclination": 98.6694,
        "meta_ra_of_asc_node": 47.4115,
        "meta_arg_of_pericenter": 256.6303,
        "meta_mean_anomaly": 135.2131,
        "meta_ephemeris_type": 0,
        "meta_classification_type": "U",
        "meta_norad_cat_id": 31411,
        "meta_element_set_no": 999,
        "meta_rev_at_epoch": 94471,
        "meta_bstar": 0.00074843103,
        "meta_mean_motion_dot": 1.915e-05,
        "meta_mean_motion_ddot": 0,
        "tle_line1": "1 31411U 99025BSX 25346.12674619  .00001915  00000+0  74843-3 0  9995",
        "tle_line2": "2 31411  98.6694  47.4115 0100642 256.6303 135.2131 14.27987029944714"
      },
      "geometry": {
        "type": "Point",
        "coordinates": [
          -133.51910932507363,
          -15.910129676667061
        ]
      }
    },
    {
      "type": "Feature",
      "properties": {
        "norad_id": 31412,
        "name": "FENGYUN 1C DEB",
        "group": "fengyun-1c-debris",
        "lat": 63.38045841984504,
        "lon": 129.01243193408354,
        "alt_km": 901.8272361653471,
        "timestamp": "2025-12-13T16:48:32.992541+00:00",
        "meta_object_name": "FENGYUN 1C DEB",
        "meta_object_id": "1999-025BSY",
        "meta_epoch": "2025-12-08T06:48:54.722880",
        "meta_mean_motion": 14.09789295,
        "meta_eccentricity": 0.00838756,
        "meta_inclination": 98.5477,
        "meta_ra_of_asc_node": 286.4048,
        "meta_arg_of_pericenter": 347.8933,
        "meta_mean_anomaly": 12.0222,
        "meta_ephemeris_type": 0,
        "meta_classification_type": "U",
        "meta_norad_cat_id": 31412,
        "meta_element_set_no": 999,
        "meta_rev_at_epoch": 60929,
        "meta_bstar": 0.0029204148,
        "meta_mean_motion_dot": 5.263e-05,
        "meta_mean_motion_ddot": 0,
        "tle_line1": "1 31412U 99025BSY 25342.28396670  .00005263  00000+0  29204-2 0  9997",
        "tle_line2": "2 31412  98.5477 286.4048 0083875 347.8933  12.0222 14.09789295609292"
      },
      "geometry": {
        "type": "Point",
        "coordinates": [
          129.01243193408354,
          63.38045841984504
        ]
      }
    },
    {
      "type": "Feature",
      "properties": {
        "norad_id": 31415,
        "name": "FENGYUN 1C DEB",
        "group": "fengyun-1c-debris",
        "lat": 38.428937926926835,
        "lon": -67.90319010128532,
        "alt_km": 748.2013008191707,
        "timestamp": "2025-12-13T16:48:32.992551+00:00",
        "meta_object_name": "FENGYUN 1C DEB",
        "meta_object_id": "1999-025BTB",
        "meta_epoch": "2025-11-30T02:58:22.044864",
        "meta_mean_motion": 14.30472505,
        "meta_eccentricity": 0.00637436,
        "meta_inclination": 99.637,
        "meta_ra_of_asc_node": 284.8171,
        "meta_arg_of_pericenter": 110.0761,
        "meta_mean_anomaly": 250.7294,
        "meta_ephemeris_type": 0,
        "meta_classification_type": "U",
        "meta_norad_cat_id": 31415,
        "meta_element_set_no": 999,
        "meta_rev_at_epoch": 62650,
        "meta_bstar": 0.0013587885,
        "meta_mean_motion_dot": 3.567e-05,
        "meta_mean_motion_ddot": 0,
        "tle_line1": "1 31415U 99025BTB 25334.12386626  .00003567  00000+0  13588-2 0  9997",
        "tle_line2": "2 31415  99.6370 284.8171 0063743 110.0761 250.7294 14.30472505626509"
      },
      "geometry": {
        "type": "Point",
        "coordinates": [
          -67.90319010128532,
          38.428937926926835
        ]
      }
    },
    {
      "type": "Feature",
      "properties": {
        "norad_id": 31416,
        "name": "FENGYUN 1C DEB",
        "group": "fengyun-1c-debris",
        "lat": 63.22772849112292,
        "lon": -123.59492584744778,
        "alt_km": 814.0679864767317,
        "timestamp": "2025-12-13T16:48:32.992561+00:00",
        "meta_object_name": "FENGYUN 1C DEB",
        "meta_object_id": "1999-025BTC",
        "meta_epoch": "2025-12-08T09:35:02.240736",
        "meta_mean_motion": 14.40658556,
        "meta_eccentricity": 0.0132845,
        "meta_inclination": 99.0518,
        "meta_ra_of_asc_node": 32.3785,
        "meta_arg_of_pericenter": 263.9287,
        "meta_mean_anomaly": 94.6749,
        "meta_ephemeris_type": 0,
        "meta_classification_type": "U",
        "meta_norad_cat_id": 31416,
        "meta_element_set_no": 999,
        "meta_rev_at_epoch": 65457,
        "meta_bstar": 0.00054277617,
        "meta_mean_motion_dot": 1.868e-05,
        "meta_mean_motion_ddot": 0,
        "tle_line1": "1 31416U 99025BTC 25342.39933149  .00001868  00000+0  54278-3 0  9998",
        "tle_line2": "2 31416  99.0518  32.3785 0132845 263.9287  94.6749 14.40658556654577"
      },
      "geometry": {
        "type": "Point",
        "coordinates": [
          -123.59492584744778,
          63.22772849112292
        ]
      }
    },
    {
      "type": "Feature",
      "properties": {
        "norad_id": 31420,
        "name": "FENGYUN 1C DEB",
        "group": "fengyun-1c-debris",
        "lat": -38.58518817489993,
        "lon": -108.38170036520731,
        "alt_km": 665.5989476181394,
        "timestamp": "2025-12-13T16:48:32.992574+00:00",
        "meta_object_name": "FENGYUN 1C DEB",
        "meta_object_id": "1999-025BTG",
        "meta_epoch": "2025-12-12T16:07:19.593120",
        "meta_mean_motion": 14.4081029,
        "meta_eccentricity": 0.01357889,
        "meta_inclination": 97.5578,
        "meta_ra_of_asc_node": 244.6278,
        "meta_arg_of_pericenter": 328.3513,
        "meta_mean_anomaly": 60.6144,
        "meta_ephemeris_type": 0,
        "meta_classification_type": "U",
        "meta_norad_cat_id": 31420,
        "meta_element_set_no": 999,
        "meta_rev_at_epoch": 64993,
        "meta_bstar": 0.0010850472,
        "meta_mean_motion_dot": 3.836e-05,
        "meta_mean_motion_ddot": 0,
        "tle_line1": "1 31420U 99025BTG 25346.67175455  .00003836  00000+0  10850-2 0  9990",
        "tle_line2": "2 31420  97.5578 244.6278 0135788 328.3513  60.6144 14.40810290649934"
      },
      "geometry": {
        "type": "Point",
        "coordinates": [
          -108.38170036520731,
          -38.58518817489993
        ]
      }
    }
  ]
}